[{"OBJECT_NAME":"STARLINK-5435","OBJECT_ID":"2022-175AR","EPOCH":"2026-03-09T08:59:40.583328","MEAN_MOTION":15.08817865,"ECCENTRICITY":0.00013284,"INCLINATION":53.2195,"RA_OF_ASC_NODE":45.378,"ARG_OF_PERICENTER":92.0824,"MEAN_ANOMALY":268.0321,"EPHEMERIS_TYPE":0,"CLASSIFICATION_TYPE":"U","NORAD_CAT_ID":54797,"ELEMENT_SET_NO":999,"REV_AT_EPOCH":17987,"BSTAR":3.3609114e-5,"MEAN_MOTION_DOT":2.47e-6,"MEAN_MOTION_DDOT":0},{"OBJECT_NAME":"NANOFF B","OBJECT_ID":"2023-185S","EPOCH":"2026-03-09T23:34:31.291104","MEAN_MOTION":15.11549361,"ECCENTRICITY":0.00109129,"INCLINATION":97.5361,"RA_OF_ASC_NODE":137.8575,"ARG_OF_PERICENTER":288.4201,"MEAN_ANOMALY":71.5842,"EPHEMERIS_TYPE":0,"CLASSIFICATION_TYPE":"U","NORAD_CAT_ID":58755,"ELEMENT_SET_NO":999,"REV_AT_EPOCH":11888,"BSTAR":0.00028764283,"MEAN_MOTION_DOT":4.819e-5,"MEAN_MOTION_DDOT":0}]
